[{"OBJECT_NAME":"ONEWEB-0572","OBJECT_ID":"2023-004M","EPOCH":"2025-12-25T15:00:44.777664","MEAN_MOTION":13.17648677,"ECCENTRICITY":0.0001579,"INCLINATION":87.9098,"RA_OF_ASC_NODE":40.3763,"ARG_OF_PERICENTER":97.8704,"MEAN_ANOMALY":262.2606,"EPHEMERIS_TYPE":0,"CLASSIFICATION_TYPE":"U","NORAD_CAT_ID":55151,"ELEMENT_SET_NO":999,"REV_AT_EPOCH":14462,"BSTAR":9.4494e-5,"MEAN_MOTION_DOT":5.0e-7,"MEAN_MOTION_DDOT":0},{"OBJECT_NAME":"ONEWEB-0573","OBJECT_ID":"2023-004N","EPOCH":"2025-12-25T14:02:04.761312","MEAN_MOTION":13.18685239,"ECCENTRICITY":0.0001043,"INCLINATION":87.915,"RA_OF_ASC_NODE":9.9621,"ARG_OF_PERICENTER":108.2006,"MEAN_ANOMALY":251.924,"EPHEMERIS_TYPE":0,"CLASSIFICATION_TYPE":"U","NORAD_CAT_ID":55152,"ELEMENT_SET_NO":999,"REV_AT_EPOCH":14681,"BSTAR":6.4202e-5,"MEAN_MOTION_DOT":3.8e-7,"MEAN_MOTION_DDOT":0},{"OBJECT_NAME":"ONEWEB-0588","OBJECT_ID":"2023-004P","EPOCH":"2025-12-25T13:52:35.208192","MEAN_MOTION":13.18686962,"ECCENTRICITY":0.0001502,"INCLINATION":87.9164,"RA_OF_ASC_NODE":9.9599,"ARG_OF_PERICENTER":104.5176,"MEAN_ANOMALY":255.6123,"EPHEMERIS_TYPE":0,"CLASSIFICATION_TYPE":"U","NORAD_CAT_ID":55153,"ELEMENT_SET_NO":999,"REV_AT_EPOCH":14681,"BSTAR":8.4685e-5,"MEAN_MOTION_DOT":4.6e-7,"MEAN_MOTION_DDOT":0},{"OBJECT_NAME":"ONEWEB-0598","OBJECT_ID":"2023-004Q","EPOCH":"2025-12-25T14:02:31.418304","MEAN_MOTION":13.11416662,"ECCENTRICITY":0.0001258,"INCLINATION":87.8845,"RA_OF_ASC_NODE":55.6431,"ARG_OF_PERICENTER":86.6128,"MEAN_ANOMALY":273.5144,"EPHEMERIS_TYPE":0,"CLASSIFICATION_TYPE":"U","NORAD_CAT_ID":55154,"ELEMENT_SET_NO":999,"REV_AT_EPOCH":14314,"BSTAR":-0.0011098,"MEAN_MOTION_DOT":-3.81e-6,"MEAN_MOTION_DDOT":0},{"OBJECT_NAME":"ONEWEB-0599","OBJECT_ID":"2023-004R","EPOCH":"2025-12-25T14:04:51.492576","MEAN_MOTION":13.17648589,"ECCENTRICITY":0.0001725,"INCLINATION":87.9098,"RA_OF_ASC_NODE":40.3847,"ARG_OF_PERICENTER":90.1177,"MEAN_ANOMALY":270.0152,"EPHEMERIS_TYPE":0,"CLASSIFICATION_TYPE":"U","NORAD_CAT_ID":55155,"ELEMENT_SET_NO":999,"REV_AT_EPOCH":14462,"BSTAR":6.0262e-5,"MEAN_MOTION_DOT":3.6e-7,"MEAN_MOTION_DDOT":0},{"OBJECT_NAME":"ONEWEB-0614","OBJECT_ID":"2023-004S","EPOCH":"2025-12-25T15:45:05.045760","MEAN_MOTION":13.11416375,"ECCENTRICITY":0.0001922,"INCLINATION":87.8839,"RA_OF_ASC_NODE":55.6382,"ARG_OF_PERICENTER":111.4326,"MEAN_ANOMALY":248.7007,"EPHEMERIS_TYPE":0,"CLASSIFICATION_TYPE":"U","NORAD_CAT_ID":55156,"ELEMENT_SET_NO":999,"REV_AT_EPOCH":14309,"BSTAR":-0.0013638,"MEAN_MOTION_DOT":-4.71e-6,"MEAN_MOTION_DDOT":0},{"OBJECT_NAME":"ONEWEB-0616","OBJECT_ID":"2023-004T","EPOCH":"2025-12-25T15:05:36.123648","MEAN_MOTION":13.17647867,"ECCENTRICITY":0.0002364,"INCLINATION":87.9107,"RA_OF_ASC_NODE":40.3695,"ARG_OF_PERICENTER":75.5433,"MEAN_ANOMALY":284.596,"EPHEMERIS_TYPE":0,"CLASSIFICATION_TYPE":"U","NORAD_CAT_ID":55157,"ELEMENT_SET_NO":999,"REV_AT_EPOCH":14484,"BSTAR":-3.9244e-5,"MEAN_MOTION_DOT":-2.0e-8,"MEAN_MOTION_DDOT":0},{"OBJECT_NAME":"ONEWEB-0617","OBJECT_ID":"2023-004U","EPOCH":"2025-12-25T17:17:52.075104","MEAN_MOTION":13.11415526,"ECCENTRICITY":0.0001621,"INCLINATION":87.8841,"RA_OF_ASC_NODE":55.6045,"ARG_OF_PERICENTER":110.892,"MEAN_ANOMALY":249.2382,"EPHEMERIS_TYPE":0,"CLASSIFICATION_TYPE":"U","NORAD_CAT_ID":55158,"ELEMENT_SET_NO":999,"REV_AT_EPOCH":14312,"BSTAR":-0.0012716,"MEAN_MOTION_DOT":-4.38e-6,"MEAN_MOTION_DDOT":0},{"OBJECT_NAME":"ONEWEB-0618","OBJECT_ID":"2023-004V","EPOCH":"2025-12-25T17:51:11.844576","MEAN_MOTION":15.10923759,"ECCENTRICITY":0.0010971,"INCLINATION":86.9082,"RA_OF_ASC_NODE":247.9685,"ARG_OF_PERICENTER":208.5275,"MEAN_ANOMALY":151.5365,"EPHEMERIS_TYPE":0,"CLASSIFICATION_TYPE":"U","NORAD_CAT_ID":55159,"ELEMENT_SET_NO":999,"REV_AT_EPOCH":15605,"BSTAR":0.00047504,"MEAN_MOTION_DOT":7.956e-5,"MEAN_MOTION_DDOT":0},{"OBJECT_NAME":"ONEWEB-0619","OBJECT_ID":"2023-004W","EPOCH":"2025-12-25T14:02:23.663040","MEAN_MOTION":13.17651226,"ECCENTRICITY":0.0002269,"INCLINATION":87.9104,"RA_OF_ASC_NODE":40.3517,"ARG_OF_PERICENTER":99.0925,"MEAN_ANOMALY":261.0464,"EPHEMERIS_TYPE":0,"CLASSIFICATION_TYPE":"U","NORAD_CAT_ID":55160,"ELEMENT_SET_NO":999,"REV_AT_EPOCH":14473,"BSTAR":1.2603e-5,"MEAN_MOTION_DOT":1.8e-7,"MEAN_MOTION_DDOT":0},{"OBJECT_NAME":"ONEWEB-0620","OBJECT_ID":"2023-004X","EPOCH":"2025-12-25T15:20:39.967008","MEAN_MOTION":13.11414005,"ECCENTRICITY":0.0001463,"INCLINATION":87.8841,"RA_OF_ASC_NODE":55.6404,"ARG_OF_PERICENTER":105.1501,"MEAN_ANOMALY":254.9789,"EPHEMERIS_TYPE":0,"CLASSIFICATION_TYPE":"U","NORAD_CAT_ID":55161,"ELEMENT_SET_NO":999,"REV_AT_EPOCH":14308,"BSTAR":-0.00090622,"MEAN_MOTION_DOT":-3.08e-6,"MEAN_MOTION_DDOT":0},{"OBJECT_NAME":"ONEWEB-0621","OBJECT_ID":"2023-004Y","EPOCH":"2025-12-25T15:59:44.202912","MEAN_MOTION":13.1141709,"ECCENTRICITY":0.0001966,"INCLINATION":87.8854,"RA_OF_ASC_NODE":55.6071,"ARG_OF_PERICENTER":105.7403,"MEAN_ANOMALY":254.3942,"EPHEMERIS_TYPE":0,"CLASSIFICATION_TYPE":"U","NORAD_CAT_ID":55162,"ELEMENT_SET_NO":999,"REV_AT_EPOCH":14306,"BSTAR":-0.00047981,"MEAN_MOTION_DOT":-1.57e-6,"MEAN_MOTION_DDOT":0},{"OBJECT_NAME":"ONEWEB-0622","OBJECT_ID":"2023-004Z","EPOCH":"2025-12-25T14:17:11.714208","MEAN_MOTION":13.11417824,"ECCENTRICITY":0.000175,"INCLINATION":87.8844,"RA_OF_ASC_NODE":55.6289,"ARG_OF_PERICENTER":127.3053,"MEAN_ANOMALY":232.8235,"EPHEMERIS_TYPE":0,"CLASSIFICATION_TYPE":"U","NORAD_CAT_ID":55163,"ELEMENT_SET_NO":999,"REV_AT_EPOCH":14304,"BSTAR":0.00018524,"MEAN_MOTION_DOT":7.8e-7,"MEAN_MOTION_DDOT":0},{"OBJECT_NAME":"ONEWEB-0623","OBJECT_ID":"2023-004AA","EPOCH":"2025-12-25T15:44:28.877856","MEAN_MOTION":13.17647935,"ECCENTRICITY":0.0002244,"INCLINATION":87.9098,"RA_OF_ASC_NODE":40.3864,"ARG_OF_PERICENTER":116.1825,"MEAN_ANOMALY":243.9537,"EPHEMERIS_TYPE":0,"CLASSIFICATION_TYPE":"U","NORAD_CAT_ID":55164,"ELEMENT_SET_NO":999,"REV_AT_EPOCH":14473,"BSTAR":5.9034e-6,"MEAN_MOTION_DOT":1.5e-7,"MEAN_MOTION_DDOT":0},{"OBJECT_NAME":"ONEWEB-0624","OBJECT_ID":"2023-004AB","EPOCH":"2025-12-25T12:20:23.740224","MEAN_MOTION":13.12923167,"ECCENTRICITY":0.0001879,"INCLINATION":87.8922,"RA_OF_ASC_NODE":25.1149,"ARG_OF_PERICENTER":104.9428,"MEAN_ANOMALY":255.1909,"EPHEMERIS_TYPE":0,"CLASSIFICATION_TYPE":"U","NORAD_CAT_ID":55165,"ELEMENT_SET_NO":999,"REV_AT_EPOCH":14528,"BSTAR":0.00048175,"MEAN_MOTION_DOT":1.87e-6,"MEAN_MOTION_DDOT":0},{"OBJECT_NAME":"ONEWEB-0625","OBJECT_ID":"2023-004AC","EPOCH":"2025-12-25T15:29:53.195712","MEAN_MOTION":13.17649578,"ECCENTRICITY":0.0001848,"INCLINATION":87.9097,"RA_OF_ASC_NODE":40.3828,"ARG_OF_PERICENTER":93.2727,"MEAN_ANOMALY":266.8616,"EPHEMERIS_TYPE":0,"CLASSIFICATION_TYPE":"U","NORAD_CAT_ID":55166,"ELEMENT_SET_NO":999,"REV_AT_EPOCH":14472,"BSTAR":3.7205e-5,"MEAN_MOTION_DOT":2.7e-7,"MEAN_MOTION_DDOT":0},{"OBJECT_NAME":"ONEWEB-0626","OBJECT_ID":"2023-004AD","EPOCH":"2025-12-25T15:15:17.574048","MEAN_MOTION":13.17650696,"ECCENTRICITY":0.0001309,"INCLINATION":87.9095,"RA_OF_ASC_NODE":40.3848,"ARG_OF_PERICENTER":93.1804,"MEAN_ANOMALY":266.9477,"EPHEMERIS_TYPE":0,"CLASSIFICATION_TYPE":"U","NORAD_CAT_ID":55167,"ELEMENT_SET_NO":999,"REV_AT_EPOCH":14472,"BSTAR":-2.5956e-5,"MEAN_MOTION_DOT":3.0e-8,"MEAN_MOTION_DDOT":0}]
