ONEWEB-0572             
1 55151U 23004M   25359.62551826  .00000050  00000+0  94494-4 0  9993
2 55151  87.9098  40.3763 0001579  97.8704 262.2606 13.17648677144621
ONEWEB-0573             
1 55152U 23004N   25359.58477733  .00000038  00000+0  64202-4 0  9993
2 55152  87.9150   9.9621 0001043 108.2006 251.9240 13.18685239146811
ONEWEB-0588             
1 55153U 23004P   25359.57818528  .00000046  00000+0  84685-4 0  9990
2 55153  87.9164   9.9599 0001502 104.5176 255.6123 13.18686962146813
ONEWEB-0598             
1 55154U 23004Q   25359.58508586 -.00000381  00000+0 -11098-2 0  9992
2 55154  87.8845  55.6431 0001258  86.6128 273.5144 13.11416662143143
ONEWEB-0599             
1 55155U 23004R   25359.58670709  .00000036  00000+0  60262-4 0  9994
2 55155  87.9098  40.3847 0001725  90.1177 270.0152 13.17648589144626
ONEWEB-0614             
1 55156U 23004S   25359.65630840 -.00000471  00000+0 -13638-2 0  9993
2 55156  87.8839  55.6382 0001922 111.4326 248.7007 13.11416375143095
ONEWEB-0616             
1 55157U 23004T   25359.62889032 -.00000002  00000+0 -39244-4 0  9993
2 55157  87.9107  40.3695 0002364  75.5433 284.5960 13.17647867144841
ONEWEB-0617             
1 55158U 23004U   25359.72074161 -.00000438  00000+0 -12716-2 0  9990
2 55158  87.8841  55.6045 0001621 110.8920 249.2382 13.11415526143128
ONEWEB-0618             
1 55159U 23004V   25359.74388709  .00007956  00000+0  47504-3 0  9993
2 55159  86.9082 247.9685 0010971 208.5275 151.5365 15.10923759156053
ONEWEB-0619             
1 55160U 23004W   25359.58499610  .00000018  00000+0  12603-4 0  9996
2 55160  87.9104  40.3517 0002269  99.0925 261.0464 13.17651226144737
ONEWEB-0620             
1 55161U 23004X   25359.63935147 -.00000308  00000+0 -90622-3 0  9993
2 55161  87.8841  55.6404 0001463 105.1501 254.9789 13.11414005143087
ONEWEB-0621             
1 55162U 23004Y   25359.66648383 -.00000157  00000+0 -47981-3 0  9992
2 55162  87.8854  55.6071 0001966 105.7403 254.3942 13.11417090143067
ONEWEB-0622             
1 55163U 23004Z   25359.59527447  .00000078  00000+0  18524-3 0  9993
2 55163  87.8844  55.6289 0001750 127.3053 232.8235 13.11417824143049
ONEWEB-0623             
1 55164U 23004AA  25359.65588979  .00000015  00000+0  59034-5 0  9992
2 55164  87.9098  40.3864 0002244 116.1825 243.9537 13.17647935144733
ONEWEB-0624             
1 55165U 23004AB  25359.51416366  .00000187  00000+0  48175-3 0  9990
2 55165  87.8922  25.1149 0001879 104.9428 255.1909 13.12923167145281
ONEWEB-0625             
1 55166U 23004AC  25359.64575458  .00000027  00000+0  37205-4 0  9999
2 55166  87.9097  40.3828 0001848  93.2727 266.8616 13.17649578144725
ONEWEB-0626             
1 55167U 23004AD  25359.63562007  .00000003  00000+0 -25956-4 0  9990
2 55167  87.9095  40.3848 0001309  93.1804 266.9477 13.17650696144722
